NORAD_CAT_ID,OBJECT_NAME,OBJECT_TYPE,EPOCH,MEAN_MOTION,ECCENTRICITY,INCLINATION,RA_OF_ASC_NODE,ARG_OF_PERICENTER,MEAN_ANOMALY,BSTAR,MEAN_MOTION_DOT,MEAN_MOTION_DDOT,TLE_LINE0,TLE_LINE1,TLE_LINE2,SEMIMAJOR_AXIS,PERIOD,APOGEE,PERIGEE,DECAYED
52852.0,STARLINK-4184,PAYLOAD,2023-01-28 10:16:50,15.08845848,0.0001189,53.2177,85.001,93.582,266.5308,-1.6458e-05,-5.5e-06,0.0,0 STARLINK-4184,1 52852U 22062Y   23028.42835929 -.00000550  00000-0 -16458-4 0  9991,2 52852  53.2177  85.0010 0001189  93.5820 266.5308 15.08845848 34388,6917.863,95.437,540.55,538.905,0.0
52852.0,STARLINK-4184,PAYLOAD,2023-01-29 03:46:05,15.08827721,0.0001184,53.2189,81.7309,99.3449,260.7677,0.00015728,2.215e-05,0.0,0 STARLINK-4184,1 52852U 22062Y   23029.15700411  .00002215  00000-0  15728-3 0  9995,2 52852  53.2189  81.7309 0001184  99.3449 260.7677 15.08827721 34982,6917.918,95.438,540.602,538.964,0.0
52852.0,STARLINK-4184,PAYLOAD,2023-01-29 13:18:23,15.08842699,0.0001268,53.2172,79.9439,108.5861,251.5269,1.7098e-05,-1.6e-07,0.0,0 STARLINK-4184,1 52852U 22062Y   23029.55443650 -.00000016  00000-0  17098-4 0  9999,2 52852  53.2172  79.9439 0001268 108.5861 251.5269 15.08842699 35045,6917.872,95.437,540.614,538.86,0.0
52852.0,STARLINK-4184,PAYLOAD,2023-01-29 19:39:56,15.08831996,0.0001436,53.2181,78.7527,118.3517,241.762,-1.2204e-06,-3.07e-06,0.0,0 STARLINK-4184,1 52852U 22062Y   23029.81940402 -.00000307  00000-0 -12204-5 0  9994,2 52852  53.2181  78.7527 0001436 118.3517 241.7620 15.08831996 35088,6917.905,95.438,540.763,538.776,0.0
52852.0,STARLINK-4184,PAYLOAD,2023-01-30 13:09:10,15.08837319,0.000127,53.2182,75.4829,110.0166,250.0963,5.8298e-05,6.4e-06,0.0,0 STARLINK-4184,1 52852U 22062Y   23030.54804141  .00000640  00000-0  58298-4 0  9995,2 52852  53.2182  75.4829 0001270 110.0166 250.0963 15.08837319 34709,6917.889,95.438,540.632,538.875,0.0
52852.0,STARLINK-4184,PAYLOAD,2023-01-30 19:30:43,15.08834656,0.0001271,53.2187,74.2935,101.1068,259.0067,6.1999e-05,6.99e-06,0.0,0 STARLINK-4184,1 52852U 22062Y   23030.81300440  .00000699  00000-0  61999-4 0  9994,2 52852  53.2187  74.2935 0001271 101.1068 259.0067 15.08834656 34741,6917.897,95.438,540.641,538.882,0.0
52852.0,STARLINK-4184,PAYLOAD,2023-01-31 03:27:39,15.08834263,0.0001236,53.2184,72.8069,102.5197,257.5933,2.1797e-05,5.9e-07,0.0,0 STARLINK-4184,1 52852U 22062Y   23031.14420720  .00000059  00000-0  21797-4 0  9997,2 52852  53.2184  72.8069 0001236 102.5197 257.5933 15.08834263 35288,6917.898,95.438,540.618,538.908,0.0
52852.0,STARLINK-4184,PAYLOAD,2023-01-31 11:24:34,15.08839476,0.0001105,53.2177,71.3207,98.0103,262.1014,7.8536e-05,9.62e-06,0.0,0 STARLINK-4184,1 52852U 22062Y   23031.47540274  .00000962  00000-0  78536-4 0  9996,2 52852  53.2177  71.3207 0001105  98.0103 262.1014 15.08839476 34843,6917.882,95.438,540.511,538.983,0.0
52852.0,STARLINK-4184,PAYLOAD,2023-01-31 19:21:30,15.08839831,0.0001061,53.2175,69.8339,92.4283,267.683,1.4303e-05,-6e-07,0.0,0 STARLINK-4184,1 52852U 22062Y   23031.80660457 -.00000060  00000-0  14303-4 0  9991,2 52852  53.2175  69.8339 0001061  92.4283 267.6830 15.08839831 34893,6917.881,95.438,540.48,539.012,0.0
52852.0,STARLINK-4184,PAYLOAD,2023-02-01 06:29:12,15.08839301,0.0001011,53.2171,67.7522,91.3751,268.7357,0.00010906,1.448e-05,0.0,0 STARLINK-4184,1 52852U 22062Y   23032.27028284  .00001448  00000-0  10906-3 0  9993,2 52852  53.2171  67.7522 0001011  91.3751 268.7357 15.08839301 35454,6917.883,95.438,540.447,539.048,0.0
52852.0,STARLINK-4184,PAYLOAD,2023-02-01 12:50:44,15.0884811,0.0001109,53.2172,66.5621,96.5216,263.5902,0.0001362,1.881e-05,0.0,0 STARLINK-4184,1 52852U 22062Y   23032.53523614  .00001881  00000-0  13620-3 0  9996,2 52852  53.2172  66.5621 0001109  96.5216 263.5902 15.08848110 35001,6917.856,95.437,540.488,538.953,0.0
52852.0,STARLINK-4184,PAYLOAD,2023-02-02 03:09:14,15.08829643,8.48e-05,53.2172,63.8867,76.7812,283.3275,-1.3317e-05,-5e-06,0.0,0 STARLINK-4184,1 52852U 22062Y   23033.13141332 -.00000500  00000-0 -13317-4 0  9999,2 52852  53.2172  63.8867 0000848  76.7812 283.3275 15.08829643 35580,6917.912,95.438,540.364,539.19,0.0
52852.0,STARLINK-4184,PAYLOAD,2023-02-02 11:06:09,15.08842445,0.0001227,53.2179,62.3992,95.7755,264.3377,3.713e-05,3.03e-06,0.0,0 STARLINK-4184,1 52852U 22062Y   23033.46260481  .00000303  00000-0  37130-4 0  9990,2 52852  53.2179  62.3992 0001227  95.7755 264.3377 15.08842445 35148,6917.873,95.437,540.587,538.889,0.0
52852.0,STARLINK-4184,PAYLOAD,2023-02-03 07:46:09,15.08845045,0.0001383,53.2182,58.5334,99.5393,260.5755,3.6688e-05,2.96e-06,0.0,0 STARLINK-4184,1 52852U 22062Y   23034.32372379  .00000296  00000-0  36688-4 0  9994,2 52852  53.2182  58.5334 0001383  99.5393 260.5755 15.08845045 35273,6917.865,95.437,540.687,538.773,0.0
52852.0,STARLINK-4184,PAYLOAD,2023-02-04 07:36:57,15.08834586,0.0001457,53.2181,54.0741,91.83,268.2859,0.00015602,2.196e-05,0.0,0 STARLINK-4184,1 52852U 22062Y   23035.31732846  .00002196  00000-0  15602-3 0  9996,2 52852  53.2181  54.0741 0001457  91.8300 268.2859 15.08834586 35919,6917.897,95.438,540.77,538.754,0.0
52852.0,STARLINK-4184,PAYLOAD,2023-02-04 18:44:39,15.08841103,0.0001448,53.2176,51.9926,83.2659,276.8498,6.7165e-05,7.81e-06,0.0,0 STARLINK-4184,1 52852U 22062Y   23035.78100725  .00000781  00000-0  67165-4 0  9992,2 52852  53.2176  51.9926 0001448  83.2659 276.8498 15.08841103 35496,6917.877,95.437,540.744,538.74,0.0
52852.0,STARLINK-4184,PAYLOAD,2023-02-05 07:27:44,15.08839472,0.0001437,53.2175,49.6125,97.8005,262.315,3.2682e-05,2.32e-06,0.0,0 STARLINK-4184,1 52852U 22062Y   23036.31092871  .00000232  00000-0  32682-4 0  9991,2 52852  53.2175  49.6125 0001437  97.8005 262.3150 15.08839472 35574,6917.882,95.438,540.741,538.753,0.0
52852.0,STARLINK-4184,PAYLOAD,2023-02-06 05:43:06,15.08861089,0.000142,53.2182,45.4478,110.7751,249.3393,0.00020875,3.038e-05,0.0,0 STARLINK-4184,1 52852U 22062Y   23037.23826479  .00003038  00000-0  20875-3 0  9999,2 52852  53.2182  45.4478 0001420 110.7751 249.3393 15.08861089 36206,6917.816,95.436,540.663,538.699,0.0
52852.0,STARLINK-4184,PAYLOAD,2023-02-06 10:29:15,15.08866862,0.0001391,53.2185,44.5564,107.5492,252.5652,0.00026798,3.983e-05,0.0,0 STARLINK-4184,1 52852U 22062Y   23037.43697970  .00003983  00000-0  26798-3 0  9992,2 52852  53.2185  44.5564 0001391 107.5492 252.5652 15.08866862 35744,6917.798,95.436,540.626,538.701,0.0
52852.0,STARLINK-4184,PAYLOAD,2023-02-07 05:33:53,15.08854388,0.0001536,53.2168,40.9856,116.9863,243.1286,0.00012026,1.627e-05,0.0,0 STARLINK-4184,1 52852U 22062Y   23038.23186818  .00001627  00000-0  12026-3 0  9997,2 52852  53.2168  40.9856 0001536 116.9863 243.1286 15.08854388 36353,6917.836,95.437,540.764,538.639,0.0
52852.0,STARLINK-4184,PAYLOAD,2023-02-07 10:20:02,15.08863061,0.0001396,53.2178,40.0958,108.1395,251.975,0.00038433,5.838e-05,0.0,0 STARLINK-4184,1 52852U 22062Y   23038.43058402  .00005838  00000-0  38433-3 0  9994,2 52852  53.2178  40.0958 0001396 108.1395 251.9750 15.08863061 35894,6917.81,95.436,540.641,538.709,0.0
52852.0,STARLINK-4184,PAYLOAD,2023-02-08 05:24:41,15.08826351,0.0001481,53.2175,36.5275,107.8645,252.2509,7.0807e-05,8.39e-06,0.0,0 STARLINK-4184,1 52852U 22062Y   23039.22547810  .00000839  00000-0  70807-4 0  9996,2 52852  53.2175  36.5275 0001481 107.8645 252.2509 15.08826351 36508,6917.922,95.438,540.812,538.763,0.0
52852.0,STARLINK-4184,PAYLOAD,2023-02-08 08:35:27,15.08830259,0.0001281,53.2169,35.9295,104.8128,255.3006,0.00019507,2.817e-05,0.0,0 STARLINK-4184,1 52852U 22062Y   23039.35795909  .00002817  00000-0  19507-3 0  9991,2 52852  53.2169  35.9295 0001281 104.8128 255.3006 15.08830259 36033,6917.91,95.438,540.661,538.889,0.0
52852.0,STARLINK-4184,PAYLOAD,2023-02-09 06:50:52,15.08833041,0.0001394,53.2182,31.7691,94.8716,265.2436,0.00035852,5.421e-05,0.0,0 STARLINK-4184,1 52852U 22062Y   23040.28533041  .00005421  00000-0  35852-3 0  9997,2 52852  53.2182  31.7691 0001394  94.8716 265.2436 15.08833041 36666,6917.902,95.438,540.731,538.802,0.0
52852.0,STARLINK-4184,PAYLOAD,2023-02-09 16:23:11,15.08831717,0.0001426,53.2181,29.9858,97.0592,263.0563,0.00058713,9.066e-05,0.0,0 STARLINK-4184,1 52852U 22062Y   23040.68277550  .00009066  00000-0  58713-3 0  9991,2 52852  53.2181  29.9858 0001426  97.0592 263.0563 15.08831717 36230,6917.906,95.438,540.757,538.784,0.0
52852.0,STARLINK-4184,PAYLOAD,2023-02-10 00:20:07,15.08832647,0.0001502,53.2184,28.4994,96.7852,263.3311,0.00032704,4.92e-05,0.0,0 STARLINK-4184,1 52852U 22062Y   23041.01397786  .00004920  00000-0  32704-3 0  9999,2 52852  53.2184  28.4994 0001502  96.7852 263.3311 15.08832647 36774,6917.903,95.438,540.807,538.729,0.0
52852.0,STARLINK-4184,PAYLOAD,2023-02-10 06:41:39,15.08850162,0.0001269,53.2175,27.3097,103.8295,256.2838,0.00065228,0.00010111,0.0,0 STARLINK-4184,1 52852U 22062Y   23041.27893175  .00010111  00000-0  65228-3 0  9996,2 52852  53.2175  27.3097 0001269 103.8295 256.2838 15.08850162 36819,6917.849,95.437,540.592,538.836,0.0
52852.0,STARLINK-4184,PAYLOAD,2023-02-11 04:57:03,15.0885933,0.0001286,53.218,23.1466,124.4698,235.6416,0.00055995,8.64e-05,0.0,0 STARLINK-4184,1 52852U 22062Y   23042.20628736  .00008640  00000-0  55995-3 0  9993,2 52852  53.2180  23.1466 0001286 124.4698 235.6416 15.08859330 36958,6917.821,95.436,540.576,538.797,0.0
52852.0,STARLINK-4184,PAYLOAD,2023-02-11 22:26:17,15.08849497,0.0001289,53.2167,19.8772,117.8583,242.254,0.00031621,4.749e-05,0.0,0 STARLINK-4184,1 52852U 22062Y   23042.93492761  .00004749  00000-0  31621-3 0  9996,2 52852  53.2167  19.8772 0001289 117.8583 242.2540 15.08849497 37065,6917.851,95.437,540.608,538.825,0.0
52852.0,STARLINK-4184,PAYLOAD,2023-02-12 07:58:36,15.08854925,0.0001229,53.2177,18.0909,113.6679,246.4442,0.00057043,8.806e-05,0.0,0 STARLINK-4184,1 52852U 22062Y   23043.33236706  .00008806  00000-0  57043-3 0  9990,2 52852  53.2177  18.0909 0001229 113.6679 246.4442 15.08854925 36634,6917.835,95.437,540.55,538.85,0.0
